103P/Hartley,e,13.6103,219.7512,181.2991,3.474884,0.1521576,0.69375147,321.7286,02/03.0/2023,2000,g  8.5,8.0
# From MPEC 2022-P82
104P/Kowal,e,5.7027,207.2071,227.2509,3.208388,0.1715038,0.66563380,66.4290,02/03.0/2023,2000,g 16.0,4.0
# From MPC109147
105P/Singer Brewster,e,9.1684,192.3952,46.4304,3.469576,0.1525069,0.40883781,250.1869,02/03.0/2023,2000,g 11.5,6.0
# From MPEC 2022-GA9
106P/Schuster,e,19.5381,48.8682,353.7214,3.765384,0.1348933,0.59395214,71.9143,02/03.0/2023,2000,g 14.0,4.8
# From MPEC 2015-M77
107P/Wilson-Harrington,e,2.7992,266.7735,95.4433,2.624444,0.2318186,0.63166552,37.6340,02/03.0/2023,2000,g  9.0,4.0
# From MPEC 2022-P82
108P/Ciffreo,e,11.4369,50.2757,354.4765,3.740815,0.1362243,0.55609348,69.5818,02/03.0/2023,2000,g  8.0,12.0
# From  105, 420
109P/Swift-Tuttle,e,113.7530,139.2201,153.0571,26.19520,0.0073514,0.96259098,80.9266,02/03.0/2023,2000,g  4.0,6.0
# From MPEC 2022-P82
110P/Hartley,e,11.7046,287.5190,167.4621,3.603814,0.1440657,0.31868297,68.0884,02/03.0/2023,2000,g  1.0,12.0
# From MPC 75718
111P/Helin-Roman-Crockett,e,4.2258,89.7510,1.0852,4.150783,0.1165491,0.10682303,69.5422,02/03.0/2023,2000,g  5.0,8.0
# From MPEC 2021-S45
112P/Urata-Niijima,e,24.2126,31.8342,21.4703,3.524467,0.1489581,0.59054641,162.4138,02/03.0/2023,2000,g 14.0,6.0
# From MPEC 2023-BF4
113P/Spitaler,e,5.2895,306.6784,115.5400,3.691856,0.1389431,0.41983856,34.2488,02/03.0/2023,2000,g 13.5,4.0
# From MPEC 2023-A50
114P/Wiseman-Skiff,e,18.2885,271.0257,172.7444,3.542951,0.1477938,0.55541880,164.8704,02/03.0/2023,2000,g 11.5,6.0
# From MPEC 2021-UA9
115P/Maury,e,11.6772,176.0068,121.0038,4.272149,0.1116181,0.51798880,102.5582,02/03.0/2023,2000,g 10.5,6.0
# From MPEC 2023-B57
116P/Wild,e,3.6034,20.9797,173.2667,3.489472,0.1512045,0.37042031,30.4156,02/03.0/2023,2000,g  2.5,10.0
# From MPEC 2022-X67
117P/Helin-Roman-Alu,e,8.7038,58.8376,223.0093,4.083579,0.1194380,0.25559663,25.0716,02/03.0/2023,2000,g  2.5,8.0
# From MPEC 2023-BF4
118P/Shoemaker-Levy,e,10.0918,142.0968,314.8409,3.346561,0.1609926,0.45346865,11.3750,02/03.0/2023,2000,g 12.0,4.0
# From MPEC 2023-BF4
119P/Parker-Hartley,e,7.3933,104.5710,322.0814,3.804507,0.1328179,0.38819527,23.2356,02/03.0/2023,2000,g  3.5,8.0
# From MPEC 2022-CN4
120P/Mueller,e,8.4895,358.6730,36.6722,3.965628,0.1248062,0.37488044,79.4321,02/03.0/2023,2000,g 12.0,4.0
# From MPEC 2023-B57
121P/Shoemaker-Holt,e,20.1650,94.1151,11.6200,4.583800,0.1004305,0.18618335,345.3889,02/03.0/2023,2000,g  6.5,8.0
# From MPC 75718
122P/de Vico,e,85.5928,79.6660,12.9903,17.62415,0.0133212,0.96233400,133.3194,02/03.0/2023,2000,g  7.5,5.2
# From MPEC 2021-F20
123P/West-Hartley,e,15.2862,45.9078,104.0936,3.880206,0.1289501,0.44439395,188.7044,02/03.0/2023,2000,g 12.2,4.0
# From MPEC 2022-YN2
124P/Mrkos,e,31.6279,0.1204,185.2687,3.365018,0.1596699,0.49009328,162.8511,02/03.0/2023,2000,g 13.5,2.8
# From MPEC 2022-YB4
125P/Spacewatch,e,9.9861,153.1506,87.1776,3.128027,0.1781551,0.51208394,289.0331,02/03.0/2023,2000,g 13.0,6.0
# From MPC 66205
126P/IRAS,e,45.8762,357.8716,356.5973,5.633887,0.0737041,0.69638420,348.7736,02/03.0/2023,2000,g  9.0,4.0
# From MPEC 2023-BF4
127P/Holt-Olmstead,e,14.3011,13.6044,6.2692,3.452495,0.1536401,0.35955077,27.1309,02/03.0/2023,2000,g 11.0,6.0
# From MPC 89014
128P/Shoemaker-Holt,e,4.3703,214.3267,210.2756,4.488188,0.1036567,0.32189640,229.4509,02/03.0/2023,2000,g  8.5,4.0
# From MPEC 2023-BF4
129P/Shoemaker-Levy,e,3.4424,184.8611,307.4361,4.288662,0.1109740,0.08494248,7.2162,02/03.0/2023,2000,g 11.0,4.0
# From MPEC 2022-ED3
130P/McNaught-Hughes,e,6.0630,70.1827,246.1032,3.382923,0.1584039,0.46113815,290.8105,02/03.0/2023,2000,g 10.0,6.0
# From MPC102101
131P/Mueller,e,7.3613,214.1475,179.0714,3.678611,0.1396942,0.34472672,205.2108,02/03.0/2023,2000,g 11.0,4.0
# From MPEC 2022-TD3
132P/Helin-Roman-Alu,e,5.3827,173.9950,216.3952,3.888065,0.1285594,0.56472901,57.4411,02/03.0/2023,2000,g 11.0,6.0
# From MPC 94676
133P/Elst-Pizarro,e,1.3898,160.0999,131.9021,3.165500,0.1750010,0.15639020,279.1158,02/03.0/2023,2000,g 15.4,2.0
# From MPC 89012
134P/Kowal-Vavrova,e,4.3343,202.0487,18.8359,6.264764,0.0628560,0.58501123,200.4440,02/03.0/2023,2000,g 11.5,4.0
# From MPEC 2022-OB6
135P/Shoemaker-Levy,e,6.0634,213.0266,22.3263,3.799765,0.1330666,0.29463058,40.1394,02/03.0/2023,2000,g  7.0,8.0
# From MPEC 2020-W26
136P/Mueller,e,9.4246,137.4326,225.1019,4.189064,0.1149552,0.29338589,279.5848,02/03.0/2023,2000,g 11.0,4.0
# From MPEC 2022-K19
137P/Shoemaker-Levy,e,4.8580,232.9499,141.1563,4.521449,0.1025151,0.57385752,154.9136,02/03.0/2023,2000,g 11.0,4.0
# From MPEC 2016-U66
138P/Shoemaker-Levy,e,10.0908,309.2824,95.5925,3.620235,0.1430866,0.53136897,196.1572,02/03.0/2023,2000,g 15.0,6.0
# From MPEC 2020-HN5
139P/Vaisala-Oterma,e,2.3369,242.1389,165.7689,4.518507,0.1026152,0.24792408,192.7845,02/03.0/2023,2000,g  9.5,4.0
# From MPEC 2015-E14
140P/Bowell-Skiff,e,3.8454,343.2254,172.6970,6.413881,0.0606768,0.69400498,166.3103,02/03.0/2023,2000,g 11.5,6.0
# From MPEC 2021-AJ0
141P/Machholz,e,13.9555,241.7927,153.6007,3.057667,0.1843397,0.73605589,143.4960,02/03.0/2023,2000,g 14.7,4.0
# From MPEC 2022-SU8
141P-I/Machholz,e,13.9548,241.7981,153.5762,3.048250,0.1851946,0.73525825,144.2448,02/03.0/2023,2000,g 17.5,4.0
# From MPEC 2021-Y10
142P/Ge-Wang,e,12.2514,175.9324,174.0219,5.000323,0.0881469,0.49708837,55.6445,02/03.0/2023,2000,g  8.5,6.0
# From MPEC 2022-WQ9
143P/Kowal-Mrkos,e,4.7252,244.9096,320.3558,4.271139,0.1116577,0.41376435,193.7444,02/03.0/2023,2000,g 13.5,2.0
# From MPC104795
144P/Kushida,e,3.9301,242.9687,216.3524,3.829575,0.1315159,0.63507529,313.0959,02/03.0/2023,2000,g  8.5,8.0
# From MPC108598
145P/Shoemaker-Levy,e,11.2802,26.7971,10.2718,4.135560,0.1171933,0.54239934,231.8294,02/03.0/2023,2000,g 13.5,4.0
# From MPC100284
146P/Shoemaker-LINEAR,e,23.1196,53.3757,317.0282,4.029122,0.1218676,0.64749792,293.0408,02/03.0/2023,2000,g 15.0,4.0
# From MPC 75720
147P/Kushida-Muramatsu,e,2.3093,91.7310,348.3314,4.026929,0.1219672,0.21568270,322.6759,02/03.0/2023,2000,g 14.0,4.0
# From MPEC 2021-S45
148P/Anderson-LINEAR,e,3.6580,89.2032,8.0426,3.618923,0.1431644,0.54996179,33.5430,02/03.0/2023,2000,g 16.0,2.0
# From MPC 75720
149P/Mueller,e,34.2842,143.9537,30.9619,4.133296,0.1172896,0.32232348,192.4459,02/03.0/2023,2000,g  8.0,8.0
# From MPEC 2022-YN2
150P/LONEOS,e,18.5327,272.0961,245.9765,3.874055,0.1292574,0.54898144,307.8658,02/03.0/2023,2000,g 13.5,4.0
# From MPEC 2022-K19
151P/Helin,e,4.7276,143.1480,216.1183,5.763062,0.0712400,0.57378159,190.1526,02/03.0/2023,2000,g 10.0,6.0
# From MPEC 2022-UY9
152P/Helin-Lawrence,e,9.8793,91.8517,164.0446,4.477703,0.1040210,0.30861746,40.0368,02/03.0/2023,2000,g 11.5,4.0
# From MPC 46101
153P/Ikeya-Zhang,e,28.1587,93.4783,34.6822,50.36690,0.0027573,0.98977329,0.0000,03/02.8216/2002,2000,g  9.0,4.0
# From MPEC 2022-K19
154P/Brewington,e,17.6324,343.0282,47.9162,4.797566,0.0937935,0.67613859,313.6241,02/03.0/2023,2000,g  2.5,12.0
# From MPEC 2022-YN2
155P/Shoemaker,e,6.4019,97.1705,14.5425,6.572643,0.0584917,0.72671000,68.7768,02/03.0/2023,2000,g 10.0,4.8
# From MPEC 2022-GA9
156P/Russell-LINEAR,e,17.2699,35.3428,0.4746,3.462099,0.1530012,0.61515268,123.4437,02/03.0/2023,2000,g 15.5,2.0
# From MPEC 2023-BF4
157P/Tritton,e,12.4203,287.5457,155.0708,3.545614,0.1476274,0.55667849,21.5798,02/03.0/2023,2000,g 10.0,4.0
# From MPEC 2022-VC5
157P-B/Tritton,e,12.4271,287.0882,153.9429,3.101075,0.1804827,0.49970876,26.7095,02/03.0/2023,2000,g 15.7,4.0
# From MPEC 2023-A50
158P/Kowal-LINEAR,e,7.4744,132.6873,193.5794,5.349657,0.0796554,0.09740654,34.6012,02/03.0/2023,2000,g  9.0,4.0
# From MPEC 2021-N06
159P/LONEOS,e,23.4831,54.9449,4.5783,5.852619,0.0696111,0.38255142,119.4961,02/03.0/2023,2000,g 10.0,4.0
# From MPEC 2022-K19
160P/LINEAR,e,15.6115,333.3608,12.7800,3.776802,0.1342820,0.52608373,155.5431,02/03.0/2023,2000,g 15.5,2.0
# From MPC 75721
161P/Hartley-IRAS,e,95.8014,1.5814,47.0321,7.716911,0.0459768,0.83546893,295.8988,02/03.0/2023,2000,g  8.5,6.0
# From MPEC 2023-A50
162P/SidingSpring,e,27.5647,30.8883,357.1870,3.092086,0.1812703,0.58316695,142.6427,02/03.0/2023,2000,g 12.0,4.0
# From MPEC 2021-S45
163P/NEAT,e,12.7158,102.0675,349.5558,3.764745,0.1349276,0.45259356,172.3753,02/03.0/2023,2000,g 14.5,4.0
# From MPEC 2021-F20
164P/Christensen,e,16.2696,88.2662,325.8721,3.654398,0.1410848,0.54095258,240.8620,02/03.0/2023,2000,g 11.0,4.0
# From MPC 75721
165P/LINEAR,e,15.8948,0.8640,125.7880,17.83897,0.0130813,0.61654937,108.5121,02/03.0/2023,2000,g 11.5,2.0
# From MPC 75722
166P/NEAT,e,15.3846,64.3496,321.6568,13.81574,0.0191930,0.38463044,144.8969,02/03.0/2023,2000,g  5.5,4.0
# From MPC 75722
167P/CINEOS,e,19.1035,295.7354,344.7967,16.25104,0.0150447,0.26982706,119.5294,02/03.0/2023,2000,g  9.5,2.0
# From MPC102101
168P/Hergenrother,e,21.6230,355.4504,15.0313,3.582366,0.1453614,0.62121538,185.5999,02/03.0/2023,2000,g 15.5,4.0
# From MPEC 2022-WQ9
169P/NEAT,e,11.2985,176.1012,218.0531,2.602519,0.2347541,0.76834558,48.9023,02/03.0/2023,2000,g 16.0,2.0
# From MPEC 2023-A50
170P/Christensen,e,10.1203,142.9188,225.4129,4.207782,0.1141890,0.30515143,351.3525,02/03.0/2023,2000,g 12.0,4.0
# From MPC102102
171P/Spahr,e,21.9462,101.6880,347.0453,3.553798,0.1471177,0.50215251,217.9733,02/03.0/2023,2000,g 13.5,4.0
# From MPEC 2023-BF4
172P/Yeung,e,11.2253,30.8751,209.2506,4.217167,0.1138080,0.20455902,245.5738,02/03.0/2023,2000,g 13.0,4.0
# From MPEC 2022-X67
173P/Mueller,e,16.4893,100.3820,29.1467,5.709531,0.0722443,0.26148313,29.8821,02/03.0/2023,2000,g  7.5,4.0
# From MPC 92985
174P/Echeclus,e,4.3439,173.1877,163.4012,10.74361,0.0279884,0.45696542,79.4692,02/03.0/2023,2000,g  9.4,2.0
# From MPC114608
175P/Hergenrother,e,4.9272,111.6897,74.2317,3.638863,0.1419893,0.39143995,175.7101,02/03.0/2023,2000,g 14.0,4.0
# From MPC 89015
176P/LINEAR,e,0.2315,345.8951,34.3402,3.197627,0.1723702,0.19298415,12.7799,02/03.0/2023,2000,g 15.1,2.0
# From MPEC 2020-L06
